ASTROCAST-0401          
1 55110U 23001DF  26068.71172895  .00009750  00000+0  37868-3 0  9995
2 55110  97.5547 160.5206 0008142 188.4231 171.6872 15.26258462176022
STARLINK-31850          
1 59903U 24100U   26068.51703459 -.00000093  00000+0  61506-5 0  9994
2 59903  42.9977 126.0864 0001005 264.5512  95.5225 15.27564513101070
