[{"OBJECT_NAME":"ASTROCAST-0401","OBJECT_ID":"2023-001DF","EPOCH":"2026-03-09T17:04:53.382144","MEAN_MOTION":15.26258462,"ECCENTRICITY":0.00081423,"INCLINATION":97.5547,"RA_OF_ASC_NODE":160.5206,"ARG_OF_PERICENTER":188.4231,"MEAN_ANOMALY":171.6872,"EPHEMERIS_TYPE":0,"CLASSIFICATION_TYPE":"U","NORAD_CAT_ID":55110,"ELEMENT_SET_NO":999,"REV_AT_EPOCH":17602,"BSTAR":0.00037868349,"MEAN_MOTION_DOT":9.75e-5,"MEAN_MOTION_DDOT":0},{"OBJECT_NAME":"STARLINK-31850","OBJECT_ID":"2024-100U","EPOCH":"2026-03-09T12:24:31.788576","MEAN_MOTION":15.27564513,"ECCENTRICITY":0.00010057,"INCLINATION":42.9977,"RA_OF_ASC_NODE":126.0864,"ARG_OF_PERICENTER":264.5512,"MEAN_ANOMALY":95.5225,"EPHEMERIS_TYPE":0,"CLASSIFICATION_TYPE":"U","NORAD_CAT_ID":59903,"ELEMENT_SET_NO":999,"REV_AT_EPOCH":10107,"BSTAR":6.150559e-6,"MEAN_MOTION_DOT":-9.3e-7,"MEAN_MOTION_DDOT":0}]
